{
 "type": "FeatureCollection",
 "features": [
  {
   "type": "Feature",
   "properties": {
    "name": "footprint of scan RG_407_2ndArmy_Fldr19_scan911 (NARA 100384845)",
    "crs_of_map": "EPSG:27500",
    "rms_m": 16.9
   },
   "geometry": {
    "type": "Polygon",
    "coordinates": [
     [
      [
       5.775179510498991,
       51.98461803858416
      ],
      [
       5.956150860988374,
       51.98886002327648
      ],
      [
       5.962978142447352,
       51.8509979672174
      ],
      [
       5.782540844196927,
       51.846765965471995
      ],
      [
       5.775179510498991,
       51.98461803858416
      ]
     ]
    ]
   }
  }
 ]
}